<?xml version="1.0" encoding="UTF-8"?>
<gpx version="1.1" creator="marshrut" xmlns="http://www.topografix.com/GPX/1/1">
  <metadata><name>Минск — Браславщина — Минск</name></metadata>
  <wpt lat="53.904500" lon="27.566700">
    <name>Минск</name>
    <desc>Старт · Выезд на север по трассе Р3 через Логойск в сторону Бегомля. Первая часть дня — быстрые точки вдоль дороги, дальше начинается Поозерье.</desc>
  </wpt>
  <wpt lat="54.536171" lon="27.859898">
    <name>Часовня, Жердяжье</name>
    <desc>Часовня-усыпальница · 1860 г. · д. Жердяжье, Логойский р-н · Небольшая кладбищенская часовня-усыпальница середины XIX века. Стоит на местном кладбище, в стороне от трассы — заезд короткий, но по грунтовке.</desc>
  </wpt>
  <wpt lat="54.738817" lon="28.058843">
    <name>Церковь Всех Святых, Бегомль</name>
    <desc>Церковь · 1886 г. · г.п. Бегомль, Докшицкий р-н · Каменный храм 1886 года в центре городка. На kudin.by объект числится как руины — за прошедшие годы церковь восстанавливали, так что состояние смотрите на месте.</desc>
  </wpt>
  <wpt lat="54.762516" lon="28.120447">
    <name>Каменные кресты, Бабцы</name>
    <desc>Каменные кресты · Культовые камни · д. Бабцы, Докшицкий р-н · Группа старых каменных крестов — редкий для Беларуси памятник народной культовой пластики. Точных датировок нет, местные предания связывают их с эпидемиями и обетами.</desc>
  </wpt>
  <wpt lat="55.614457" lon="27.630181">
    <name>Костёл Успения Пресвятой Девы Марии, Миоры</name>
    <desc>Костёл · 1907 г. · г. Миоры · Неоготический костёл 1907 года на берегу Миорского озера — главная вертикаль города и лучший кадр на закате с воды. Отсюда же удобно заезжать на Ельню.</desc>
  </wpt>
  <wpt lat="55.575529" lon="27.730897">
    <name>Экотропа «Озеравки-Ельня»</name>
    <desc>Экотропа · Верховое болото · заказник «Ельня», Миорский р-н · Деревянные мостки через верховое болото Ельня — крупнейшее в Беларуси и одно из старейших в Европе, возраст около 9 тысяч лет. На тропе стоит смотровая вышка, с неё болото видно до горизонта. Осенью здесь клюква и стоянка журавлей, весной — тетеревиные тока. Идти по настилу примерно час туда-обратно; обувь лучше непромокаемая.</desc>
  </wpt>
  <wpt lat="55.782486" lon="27.934463">
    <name>Костёл Рождества Пресвятой Девы Марии</name>
    <desc>Костёл · Верхнедвинск · г. Верхнедвинск · Главный католический храм города на Западной Двине. Верхнедвинск (до 1962 года — Дрисса) — тихий райцентр у самой латвийской границы.</desc>
  </wpt>
  <wpt lat="55.915282" lon="27.887289">
    <name>Сарьянская церковь</name>
    <desc>Церковь · Неоготика XIX в. · д. Сарья, Верхнедвинский р-н · Краснокирпичный неоготический храм — самая эффектная церковь севера Беларуси. Строился как костёл-усыпальница памяти жены владельца имения, позже передан православным. Стрельчатые окна, ажурная башня, кирпичный декор — вживую впечатляет сильнее, чем на фото.</desc>
  </wpt>
  <wpt lat="55.910718" lon="27.888792">
    <name>Подвесной мост, Сарья</name>
    <desc>Подвесной мост · д. Сарья, через реку Сарьянка · Пешеходная подвесная переправа рядом с церковью — качается, скрипит и отлично снимается. Пять минут остановки.</desc>
  </wpt>
  <wpt lat="55.634624" lon="27.045863">
    <name>Замковая гора, Браслав</name>
    <desc>Городище · Земляные валы · г. Браслав · Городище древнего Браслава между озёрами Дривяты и Новято. Наверху — остатки валов и обзор на оба озера и весь город. Подъём пешком по тропе, минут пять.</desc>
  </wpt>
  <wpt lat="55.719200" lon="27.053529">
    <name>Гора Маяк, Кезики</name>
    <desc>Смотровая точка · Ночёвка · д. Кезики, Браславский р-н · Лучшая обзорная площадка Браславского национального парка: 45 метров над водой и 174 над уровнем моря, холм оставлен Поозерским ледником. С площадки видно озёра Струсто и Снуды с островами. Идеальная точка на закат — и логичное место закончить первый день: ночевать удобно в Браславе или на турбазах у озёр.</desc>
  </wpt>
  <wpt lat="55.576608" lon="26.685219">
    <name>ГЭС «Дружба народов», Дрисвяты</name>
    <desc>ГЭС · 1953 г. · д. Дрисвяты, Браславский р-н · Малая гидроэлектростанция 1953 года на протоке озера Дрисвяты — построена силами трёх республик, отсюда и название. Рядом — стык границ Беларуси, Литвы и Латвии и вид на бывшую Игналинскую АЭС.</desc>
  </wpt>
  <wpt lat="55.664978" lon="27.140556">
    <name>Городище Масковичи</name>
    <desc>Городище · Археология · д. Масковичи, Браславский р-н · Городище XI–XIV веков, знаменитое находками костяных пластин со скандинавскими рунами — след варяжского присутствия на Браславщине. Сверху хороший обзор на озеро Дербо.</desc>
  </wpt>
  <wpt lat="55.656271" lon="27.133634">
    <name>«Божье Око»</name>
    <desc>Смотровая точка · Озеро · Браславский р-н, у д. Масковичи · Круглое озерцо идеально правильной формы, из-за которой его и прозвали Божьим Оком. Смотреть нужно сверху, с холма над берегом — с воды эффект теряется.</desc>
  </wpt>
  <wpt lat="55.646896" lon="27.136002">
    <name>Городище Шауры</name>
    <desc>Городище · Археология · д. Шауры (Литовщина), Браславский р-н · Ещё одно городище того же куста, на холме над озером. Ориентир на месте — перекрёсток с жёлтым столбиком, от него уходит тропинка на вершину; машину оставляют внизу.</desc>
  </wpt>
  <wpt lat="55.686028" lon="27.183650">
    <name>Костёл Божьего Провидения, Слободка</name>
    <desc>Костёл · Неоготика · д. Слободка, Браславский р-н · Неоготический костёл начала XX века на холме между озёрами — один из самых узнаваемых силуэтов Браславщины. Внутри сохранились витражи и роспись.</desc>
  </wpt>
  <wpt lat="55.788182" lon="27.463182">
    <name>Троицкий костёл и монастырь бернардинцев</name>
    <desc>Костёл · 1643 г. · г.п. Друя, Браславский р-н · Барочный костёл 1643 года в бывшем местечке на Западной Двине — прямо напротив латвийской Пиедруи. Друя когда-то была крупным торговым городом с магдебургским правом; сейчас это тихий посёлок с несоразмерно большими храмами.</desc>
  </wpt>
  <wpt lat="55.791564" lon="27.448772">
    <name>Борисов камень с надписями</name>
    <desc>Борисов камень · XII в. · г.п. Друя, в русле реки Друйки · Редчайший памятник эпиграфики XII века: на валуне высечены шестиконечный крест и надпись «Іс. Хс. ника, Ги, помози рабу своему…». Такие камни до принятия христианства были объектами языческого поклонения, а затем их «окрестили» высеченными крестами. Лежит в русле Друйки — в высокую воду виден хуже.</desc>
  </wpt>
  <wpt lat="55.710199" lon="27.578197">
    <name>Церковь, Идолта</name>
    <desc>Церковь · 1939 г. · Модерн · д. Идолта, Миорский р-н · Единственный в Беларуси храм в стиле модерн — так его описывает kudin.by. Построен в 1939 году, необычные обтекаемые формы, каких больше нигде в стране нет. Ради него одного стоит сделать крюк.</desc>
  </wpt>
  <wpt lat="55.760400" lon="27.617220">
    <name>Водопад на реке Вята</name>
    <desc>Водопад · река Вята · у д. Прудники, Миорский р-н · Порог-водопад на Вяте, известный также как Миорский или «идолтский» — это один и тот же объект, просто у местных два названия. Вода падает с уступа около двух метров; весной шумит, летом мелеет. Подход к воде по тропе от дороги.</desc>
  </wpt>
  <wpt lat="55.548350" lon="26.824601">
    <name>Усадьба Плятеров</name>
    <desc>Усадьба · 1904 г. · д. Опса, Браславский р-н · Усадебный дом графов Плятеров начала XX века с парком над озером Опса. Сейчас в здании школа-интернат, поэтому осмотр — снаружи.</desc>
  </wpt>
  <wpt lat="55.534758" lon="26.820269">
    <name>Костёл Святого Иоанна Крестителя</name>
    <desc>Костёл · д. Опса, Браславский р-н · Приходский костёл в центре местечка, в паре километров от усадьбы. Рядом смотровая точка на озеро Опса.</desc>
  </wpt>
  <wpt lat="55.394200" lon="26.627122">
    <name>Костёл Рождества Девы Марии, Видзы</name>
    <desc>Костёл · Неоготика · г.п. Видзы, Браславский р-н · Один из самых высоких храмов Беларуси — башни под 59 метров. Неоготика начала XX века; в стены до сих пор вмурованы снаряды Первой мировой, когда костёл служил наблюдательным пунктом. Внутри — высокий стрельчатый неф.</desc>
  </wpt>
  <wpt lat="55.113247" lon="26.840531">
    <name>Поставы — центр и церковь</name>
    <desc>Город · Поставы · г. Поставы · Городок Тизенгауза с сохранившейся рыночной площадью XVIII века — редкий для Беларуси цельный ансамбль застройки. Хорошее место на позднюю остановку перед перегоном домой.</desc>
  </wpt>
</gpx>
