<?xml version="1.0" encoding="UTF-8"?>
<kml xmlns="http://www.opengis.net/kml/2.2">
<Document>
  <name>Минск — Браславщина — Минск</name>
  <visibility>1</visibility>
  <Style id="pm-route">
    <IconStyle><color>ff2a4a8b</color><scale>1.1</scale></IconStyle>
  </Style>
  <Placemark>
    <name>Минск</name>
    <description>Старт · Выезд на север по трассе Р3 через Логойск в сторону Бегомля. Первая часть дня — быстрые точки вдоль дороги, дальше начинается Поозерье.</description>
    <styleUrl>#pm-route</styleUrl>
    <Point><coordinates>27.566700,53.904500</coordinates></Point>
  </Placemark>
  <Placemark>
    <name>Часовня, Жердяжье</name>
    <description>Часовня-усыпальница · 1860 г. · д. Жердяжье, Логойский р-н · Небольшая кладбищенская часовня-усыпальница середины XIX века. Стоит на местном кладбище, в стороне от трассы — заезд короткий, но по грунтовке.
Фото: https://kudin.by/?point=4917</description>
    <styleUrl>#pm-route</styleUrl>
    <Point><coordinates>27.859898,54.536171</coordinates></Point>
  </Placemark>
  <Placemark>
    <name>Церковь Всех Святых, Бегомль</name>
    <description>Церковь · 1886 г. · г.п. Бегомль, Докшицкий р-н · Каменный храм 1886 года в центре городка. На kudin.by объект числится как руины — за прошедшие годы церковь восстанавливали, так что состояние смотрите на месте.
Фото: https://kudin.by/?point=4920</description>
    <styleUrl>#pm-route</styleUrl>
    <Point><coordinates>28.058843,54.738817</coordinates></Point>
  </Placemark>
  <Placemark>
    <name>Каменные кресты, Бабцы</name>
    <description>Каменные кресты · Культовые камни · д. Бабцы, Докшицкий р-н · Группа старых каменных крестов — редкий для Беларуси памятник народной культовой пластики. Точных датировок нет, местные предания связывают их с эпидемиями и обетами.
Фото: https://kudin.by/?point=4921</description>
    <styleUrl>#pm-route</styleUrl>
    <Point><coordinates>28.120447,54.762516</coordinates></Point>
  </Placemark>
  <Placemark>
    <name>Костёл Успения Пресвятой Девы Марии, Миоры</name>
    <description>Костёл · 1907 г. · г. Миоры · Неоготический костёл 1907 года на берегу Миорского озера — главная вертикаль города и лучший кадр на закате с воды. Отсюда же удобно заезжать на Ельню.
Фото: https://kudin.by/?point=4689</description>
    <styleUrl>#pm-route</styleUrl>
    <Point><coordinates>27.630181,55.614457</coordinates></Point>
  </Placemark>
  <Placemark>
    <name>Экотропа «Озеравки-Ельня»</name>
    <description>Экотропа · Верховое болото · заказник «Ельня», Миорский р-н · Деревянные мостки через верховое болото Ельня — крупнейшее в Беларуси и одно из старейших в Европе, возраст около 9 тысяч лет. На тропе стоит смотровая вышка, с неё болото видно до горизонта. Осенью здесь клюква и стоянка журавлей, весной — тетеревиные тока. Идти по настилу примерно час туда-обратно; обувь лучше непромокаемая.
Фото: https://kudin.by/?point=4690</description>
    <styleUrl>#pm-route</styleUrl>
    <Point><coordinates>27.730897,55.575529</coordinates></Point>
  </Placemark>
  <Placemark>
    <name>Костёл Рождества Пресвятой Девы Марии</name>
    <description>Костёл · Верхнедвинск · г. Верхнедвинск · Главный католический храм города на Западной Двине. Верхнедвинск (до 1962 года — Дрисса) — тихий райцентр у самой латвийской границы.
Фото: https://kudin.by/?point=4693</description>
    <styleUrl>#pm-route</styleUrl>
    <Point><coordinates>27.934463,55.782486</coordinates></Point>
  </Placemark>
  <Placemark>
    <name>Сарьянская церковь</name>
    <description>Церковь · Неоготика XIX в. · д. Сарья, Верхнедвинский р-н · Краснокирпичный неоготический храм — самая эффектная церковь севера Беларуси. Строился как костёл-усыпальница памяти жены владельца имения, позже передан православным. Стрельчатые окна, ажурная башня, кирпичный декор — вживую впечатляет сильнее, чем на фото.
Фото: https://kudin.by/?point=4691</description>
    <styleUrl>#pm-route</styleUrl>
    <Point><coordinates>27.887289,55.915282</coordinates></Point>
  </Placemark>
  <Placemark>
    <name>Подвесной мост, Сарья</name>
    <description>Подвесной мост · д. Сарья, через реку Сарьянка · Пешеходная подвесная переправа рядом с церковью — качается, скрипит и отлично снимается. Пять минут остановки.
Фото: https://kudin.by/?point=4922</description>
    <styleUrl>#pm-route</styleUrl>
    <Point><coordinates>27.888792,55.910718</coordinates></Point>
  </Placemark>
  <Placemark>
    <name>Замковая гора, Браслав</name>
    <description>Городище · Земляные валы · г. Браслав · Городище древнего Браслава между озёрами Дривяты и Новято. Наверху — остатки валов и обзор на оба озера и весь город. Подъём пешком по тропе, минут пять.
Фото: https://kudin.by/?point=4178</description>
    <styleUrl>#pm-route</styleUrl>
    <Point><coordinates>27.045863,55.634624</coordinates></Point>
  </Placemark>
  <Placemark>
    <name>Гора Маяк, Кезики</name>
    <description>Смотровая точка · Ночёвка · д. Кезики, Браславский р-н · Лучшая обзорная площадка Браславского национального парка: 45 метров над водой и 174 над уровнем моря, холм оставлен Поозерским ледником. С площадки видно озёра Струсто и Снуды с островами. Идеальная точка на закат — и логичное место закончить первый день: ночевать удобно в Браславе или на турбазах у озёр.
Фото: https://kudin.by/?point=4324</description>
    <styleUrl>#pm-route</styleUrl>
    <Point><coordinates>27.053529,55.719200</coordinates></Point>
  </Placemark>
  <Placemark>
    <name>ГЭС «Дружба народов», Дрисвяты</name>
    <description>ГЭС · 1953 г. · д. Дрисвяты, Браславский р-н · Малая гидроэлектростанция 1953 года на протоке озера Дрисвяты — построена силами трёх республик, отсюда и название. Рядом — стык границ Беларуси, Литвы и Латвии и вид на бывшую Игналинскую АЭС.
Фото: https://kudin.by/?point=5081</description>
    <styleUrl>#pm-route</styleUrl>
    <Point><coordinates>26.685219,55.576608</coordinates></Point>
  </Placemark>
  <Placemark>
    <name>Городище Масковичи</name>
    <description>Городище · Археология · д. Масковичи, Браславский р-н · Городище XI–XIV веков, знаменитое находками костяных пластин со скандинавскими рунами — след варяжского присутствия на Браславщине. Сверху хороший обзор на озеро Дербо.</description>
    <styleUrl>#pm-route</styleUrl>
    <Point><coordinates>27.140556,55.664978</coordinates></Point>
  </Placemark>
  <Placemark>
    <name>«Божье Око»</name>
    <description>Смотровая точка · Озеро · Браславский р-н, у д. Масковичи · Круглое озерцо идеально правильной формы, из-за которой его и прозвали Божьим Оком. Смотреть нужно сверху, с холма над берегом — с воды эффект теряется.</description>
    <styleUrl>#pm-route</styleUrl>
    <Point><coordinates>27.133634,55.656271</coordinates></Point>
  </Placemark>
  <Placemark>
    <name>Городище Шауры</name>
    <description>Городище · Археология · д. Шауры (Литовщина), Браславский р-н · Ещё одно городище того же куста, на холме над озером. Ориентир на месте — перекрёсток с жёлтым столбиком, от него уходит тропинка на вершину; машину оставляют внизу.</description>
    <styleUrl>#pm-route</styleUrl>
    <Point><coordinates>27.136002,55.646896</coordinates></Point>
  </Placemark>
  <Placemark>
    <name>Костёл Божьего Провидения, Слободка</name>
    <description>Костёл · Неоготика · д. Слободка, Браславский р-н · Неоготический костёл начала XX века на холме между озёрами — один из самых узнаваемых силуэтов Браславщины. Внутри сохранились витражи и роспись.
Фото: https://kudin.by/?point=4683</description>
    <styleUrl>#pm-route</styleUrl>
    <Point><coordinates>27.183650,55.686028</coordinates></Point>
  </Placemark>
  <Placemark>
    <name>Троицкий костёл и монастырь бернардинцев</name>
    <description>Костёл · 1643 г. · г.п. Друя, Браславский р-н · Барочный костёл 1643 года в бывшем местечке на Западной Двине — прямо напротив латвийской Пиедруи. Друя когда-то была крупным торговым городом с магдебургским правом; сейчас это тихий посёлок с несоразмерно большими храмами.
Фото: https://kudin.by/?point=4687</description>
    <styleUrl>#pm-route</styleUrl>
    <Point><coordinates>27.463182,55.788182</coordinates></Point>
  </Placemark>
  <Placemark>
    <name>Борисов камень с надписями</name>
    <description>Борисов камень · XII в. · г.п. Друя, в русле реки Друйки · Редчайший памятник эпиграфики XII века: на валуне высечены шестиконечный крест и надпись «Іс. Хс. ника, Ги, помози рабу своему…». Такие камни до принятия христианства были объектами языческого поклонения, а затем их «окрестили» высеченными крестами. Лежит в русле Друйки — в высокую воду виден хуже.
Фото: https://kudin.by/?point=4684</description>
    <styleUrl>#pm-route</styleUrl>
    <Point><coordinates>27.448772,55.791564</coordinates></Point>
  </Placemark>
  <Placemark>
    <name>Церковь, Идолта</name>
    <description>Церковь · 1939 г. · Модерн · д. Идолта, Миорский р-н · Единственный в Беларуси храм в стиле модерн — так его описывает kudin.by. Построен в 1939 году, необычные обтекаемые формы, каких больше нигде в стране нет. Ради него одного стоит сделать крюк.
Фото: https://kudin.by/?point=4688</description>
    <styleUrl>#pm-route</styleUrl>
    <Point><coordinates>27.578197,55.710199</coordinates></Point>
  </Placemark>
  <Placemark>
    <name>Водопад на реке Вята</name>
    <description>Водопад · река Вята · у д. Прудники, Миорский р-н · Порог-водопад на Вяте, известный также как Миорский или «идолтский» — это один и тот же объект, просто у местных два названия. Вода падает с уступа около двух метров; весной шумит, летом мелеет. Подход к воде по тропе от дороги.
Фото: https://kudin.by/?point=5101</description>
    <styleUrl>#pm-route</styleUrl>
    <Point><coordinates>27.617220,55.760400</coordinates></Point>
  </Placemark>
  <Placemark>
    <name>Усадьба Плятеров</name>
    <description>Усадьба · 1904 г. · д. Опса, Браславский р-н · Усадебный дом графов Плятеров начала XX века с парком над озером Опса. Сейчас в здании школа-интернат, поэтому осмотр — снаружи.
Фото: https://kudin.by/?point=4682</description>
    <styleUrl>#pm-route</styleUrl>
    <Point><coordinates>26.824601,55.548350</coordinates></Point>
  </Placemark>
  <Placemark>
    <name>Костёл Святого Иоанна Крестителя</name>
    <description>Костёл · д. Опса, Браславский р-н · Приходский костёл в центре местечка, в паре километров от усадьбы. Рядом смотровая точка на озеро Опса.
Фото: https://kudin.by/?point=4681</description>
    <styleUrl>#pm-route</styleUrl>
    <Point><coordinates>26.820269,55.534758</coordinates></Point>
  </Placemark>
  <Placemark>
    <name>Костёл Рождества Девы Марии, Видзы</name>
    <description>Костёл · Неоготика · г.п. Видзы, Браславский р-н · Один из самых высоких храмов Беларуси — башни под 59 метров. Неоготика начала XX века; в стены до сих пор вмурованы снаряды Первой мировой, когда костёл служил наблюдательным пунктом. Внутри — высокий стрельчатый неф.
Фото: https://kudin.by/?point=4680</description>
    <styleUrl>#pm-route</styleUrl>
    <Point><coordinates>26.627122,55.394200</coordinates></Point>
  </Placemark>
  <Placemark>
    <name>Поставы — центр и церковь</name>
    <description>Город · Поставы · г. Поставы · Городок Тизенгауза с сохранившейся рыночной площадью XVIII века — редкий для Беларуси цельный ансамбль застройки. Хорошее место на позднюю остановку перед перегоном домой.
Фото: https://kudin.by/?point=4701</description>
    <styleUrl>#pm-route</styleUrl>
    <Point><coordinates>26.840531,55.113247</coordinates></Point>
  </Placemark>
</Document>
</kml>
