<?xml version="1.0" encoding="UTF-8"?>
<kml xmlns="http://www.opengis.net/kml/2.2">
<Document>
  <name>Все точки маршрута</name>
  <visibility>1</visibility>
  <Style id="pm-route">
    <IconStyle><color>ff2a4a8b</color><scale>1.1</scale></IconStyle>
  </Style>
  <Style id="pm-city">
    <IconStyle><color>ff4870c4</color><scale>1.1</scale></IconStyle>
  </Style>
  <Style id="pm-mil">
    <IconStyle><color>ff405a3d</color><scale>1.1</scale></IconStyle>
  </Style>
  <Placemark>
    <name>Минск</name>
    <description>Старт · Начало маршрута. Выезд по трассе М1 (Е30) в направлении Бреста.</description>
    <styleUrl>#pm-route</styleUrl>
    <Point><coordinates>27.566700,53.904500</coordinates></Point>
  </Placemark>
  <Placemark>
    <name>Свято-Успенский Жировичский монастырь</name>
    <description>Монастырь · XVII–XVIII вв. · Один из главных православных центров Беларуси, крупнейший архитектурный ансамбль XVII–XVIII вв. Здесь хранится чудотворная Жировичская икона Божией Матери. В зените славы монастырь называли «новой Ченстоховой» Речи Посполитой. Комплекс включает Успенский собор, Явленскую и Крестовоздвиженскую церкви, здание семинарии. Крюк ~12 км с трассы М1 у Слонима.</description>
    <styleUrl>#pm-route</styleUrl>
    <Point><coordinates>25.342000,53.030000</coordinates></Point>
  </Placemark>
  <Placemark>
    <name>Коссовский замок (Дворец Пусловских)</name>
    <description>Замок · Дворец Пусловских · XIX в. · Неоготический дворец 1838 года — «Рыцарская греза» с 12 башнями, 132 комнатами и легендарным стеклянным полом над аквариумом. Первый в Беларуси дворец с центральным отоплением. Отреставрирован, открыт для посещения. Рядом — музей-усадьба Тадеуша Костюшко. Съезд с М1 на Ивацевичи, затем ~20 км по Р44.
Фото: https://kudin.by/?point=301</description>
    <styleUrl>#pm-route</styleUrl>
    <Point><coordinates>25.121700,52.765600</coordinates></Point>
  </Placemark>
  <Placemark>
    <name>Дворцовый комплекс Сапег</name>
    <description>Дворец · Резиденция Сапег · XVII–XVIII вв. · Резиденция канцлера ВКЛ Льва Сапеги, перестроенная в 1784–1786 гг. Сохранились въездные ворота-триумф, флигели и руины главного корпуса. По легенде, подземный ход соединял дворец с Коссовским замком.
Фото: https://kudin.by/?point=300</description>
    <styleUrl>#pm-route</styleUrl>
    <Point><coordinates>24.896100,52.860000</coordinates></Point>
  </Placemark>
  <Placemark>
    <name>Костёл Святого Казимира</name>
    <description>Костёл · Католический храм · Католический храм в Ружанах. Святой Казимир — покровитель города, его образ присутствует на гербе Ружан.
Фото: https://kudin.by/?point=4820</description>
    <styleUrl>#pm-route</styleUrl>
    <Point><coordinates>24.896822,52.869818</coordinates></Point>
  </Placemark>
  <Placemark>
    <name>Синагога, Ружаны</name>
    <description>Синагога · Историческое место · Историческая синагога — свидетель многовековой еврейской истории Ружан. Напоминает о богатом многоконфессиональном прошлом местечка.
Фото: https://kudin.by/?point=4823</description>
    <styleUrl>#pm-route</styleUrl>
    <Point><coordinates>24.888417,52.865102</coordinates></Point>
  </Placemark>
  <Placemark>
    <name>Усадебный дом, Пружаны</name>
    <description>Усадьба · XIX в. · Пружаны · Исторический усадебный дом XIX века. Крюк через Пружаны также позволяет увидеть сам город с его церквями и застройкой эпохи Российской империи.
Фото: https://kudin.by/?point=5263</description>
    <styleUrl>#pm-route</styleUrl>
    <Point><coordinates>24.480072,52.493652</coordinates></Point>
  </Placemark>
  <Placemark>
    <name>Брест</name>
    <description>Промежуточный финиш · Далее маршруты по городу и окрестностям · Промежуточная точка маршрута и отдельный день осмотра. Кроме объектов ниже — пешеходный бульвар Гоголя, Свято-Симеоновский собор XIX в. и Музей спасённых ценностей в центре города.</description>
    <styleUrl>#pm-route</styleUrl>
    <Point><coordinates>23.688400,52.097600</coordinates></Point>
  </Placemark>
  <Placemark>
    <name>Брестская крепость</name>
    <description>Крепость · 1836–1842 гг. · Мемориал · Крепость первого класса, заложенная в 1830-х на месте старого города Берестье, который ради стройки полностью перенесли на новое место. Мемориальный комплекс открыт в 1971 году: Цитадель, руины Белого дворца, монумент «Мужество», штык-обелиск, Вечный огонь и Холмские ворота со следами обстрела 1941 года. Осмотр всей территории — минимум 2–3 часа.
Фото: https://kudin.by/?point=3736</description>
    <styleUrl>#pm-route</styleUrl>
    <Point><coordinates>23.656051,52.082193</coordinates></Point>
  </Placemark>
  <Placemark>
    <name>Археологический музей «Берестье»</name>
    <description>Музей · Археология · XI–XIII вв. · Единственный в Европе музей средневекового восточнославянского города, показанный прямо на месте раскопа. Под куполом павильона — вскрытый культурный слой с деревянными срубами XI–XIII веков, улицами и мостовыми древнего Берестья. Находится на Волынском укреплении крепости.
Фото: https://kudin.by/?point=3737</description>
    <styleUrl>#pm-route</styleUrl>
    <Point><coordinates>23.654623,52.080170</coordinates></Point>
  </Placemark>
  <Placemark>
    <name>Южные ворота</name>
    <description>Ворота · Укрепления крепости · Въездные ворота южной части крепостных укреплений — сохранившийся элемент оборонительного обвода Волынского укрепления. Кирпичная арка с казематами по бокам, характерный образец фортификации середины XIX века.
Фото: https://kudin.by/?point=4166</description>
    <styleUrl>#pm-route</styleUrl>
    <Point><coordinates>23.659118,52.077304</coordinates></Point>
  </Placemark>
  <Placemark>
    <name>Монастырь бернардинок: жилой корпус</name>
    <description>Монастырь · 2-я половина XVIII в. · Жилой корпус монастыря бернардинок второй половины XVIII века — один из немногих уцелевших фрагментов застройки старого Берестья, оказавшегося внутри крепостных стен. Сохранился частично; здание пережило и снос старого города, и бои 1941 года.
Фото: https://kudin.by/?point=810</description>
    <styleUrl>#pm-route</styleUrl>
    <Point><coordinates>23.658283,52.079036</coordinates></Point>
  </Placemark>
  <Placemark>
    <name>Межевой знак</name>
    <description>Межевой знак · 1836 г. · Каменный столб 1836 года — редкий уцелевший пограничный знак эпохи строительства крепости, отмечавший границу отведённых под неё земель. Маленький, неприметный объект для тех, кто любит детали: стоит вне туристических троп.
Фото: https://kudin.by/?point=807</description>
    <styleUrl>#pm-route</styleUrl>
    <Point><coordinates>23.686577,52.091802</coordinates></Point>
  </Placemark>
  <Placemark>
    <name>Башня-донжон «Белая вежа», Каменец</name>
    <description>Башня-донжон · XIII в. · Каменец · Белокаменная оборонительная башня 1271–1289 гг. постройки — один из редчайших сохранившихся памятников волынской школы оборонного зодчества. Высота 30 метров, стены толщиной до 2,5 м. Дала название Беловежской пуще. Внутри — музей с экспозицией о средневековом укреплённом городе.
Фото: https://kudin.by/?point=4739</description>
    <styleUrl>#pm-route</styleUrl>
    <Point><coordinates>23.819537,52.404756</coordinates></Point>
  </Placemark>
  <Placemark>
    <name>Музей «Успаміны Бацькаўшчыны»</name>
    <description>Музей · Народный быт · Пружанский район · д. Стойлы, д. 22, Пружанский район · Сельский частный музей народного быта и памяти родного края. Собранная коллекция предметов повседневной жизни белорусской деревни XIX–XX веков воссоздаёт атмосферу ушедшего времени.
Фото: https://kudin.by/?point=8257</description>
    <styleUrl>#pm-route</styleUrl>
    <Point><coordinates>24.098376,52.466705</coordinates></Point>
  </Placemark>
  <Placemark>
    <name>Костёл, Лысково</name>
    <description>Костёл · д. Лысково · Исторический католический храм в деревне Лысково — памятник сакральной архитектуры Брестчины.
Фото: https://kudin.by/?point=8232</description>
    <styleUrl>#pm-route</styleUrl>
    <Point><coordinates>24.614780,52.856319</coordinates></Point>
  </Placemark>
  <Placemark>
    <name>Усадьба Сегеней, Краски</name>
    <description>Усадьба · д. Краски · Историческая усадьба в деревне Краски — памятник усадебной архитектуры Гродненщины.
Фото: https://kudin.by/?point=8376</description>
    <styleUrl>#pm-route</styleUrl>
    <Point><coordinates>24.557563,52.960755</coordinates></Point>
  </Placemark>
  <Placemark>
    <name>Усадьба, Подороск</name>
    <description>Усадьба · д. Подороск · Усадебный дом в деревне Подороск — исторический объект на пути из Лыскова к Волковыску.
Фото: https://kudin.by/?point=8382</description>
    <styleUrl>#pm-route</styleUrl>
    <Point><coordinates>24.620204,52.977486</coordinates></Point>
  </Placemark>
  <Placemark>
    <name>Костёл, Волковыск</name>
    <description>Костёл · Волковыск · Исторический католический храм в Волковыске — памятник сакральной архитектуры города.
Фото: https://kudin.by/?point=8391</description>
    <styleUrl>#pm-route</styleUrl>
    <Point><coordinates>24.471595,53.158914</coordinates></Point>
  </Placemark>
  <Placemark>
    <name>Дом Багратиона, Волковыск</name>
    <description>Историческое место · Волковыск · Исторический дом, связанный с именем князя Петра Багратиона — прославленного российского полководца эпохи наполеоновских войн, который квартировал в Волковыске в период военных кампаний.
Фото: https://kudin.by/?point=8392</description>
    <styleUrl>#pm-route</styleUrl>
    <Point><coordinates>24.473429,53.161489</coordinates></Point>
  </Placemark>
  <Placemark>
    <name>Усадебный дом, Дубовцы</name>
    <description>Усадьба · д. Дубовцы · Усадебный дом в деревне Дубовцы — исторический объект на финальном отрезке пути к Гродно.
Фото: https://kudin.by/?point=5032</description>
    <styleUrl>#pm-route</styleUrl>
    <Point><coordinates>24.408898,53.349684</coordinates></Point>
  </Placemark>
  <Placemark>
    <name>Гродно</name>
    <description>Промежуточный финиш · дальше петля на Минск · Один из старейших городов Беларуси с богатейшим архитектурным наследием: Старый и Новый замки, Фарный костёл, Борисоглебская (Коложская) церковь XII века, Августовский канал.</description>
    <styleUrl>#pm-route</styleUrl>
    <Point><coordinates>23.835000,53.688400</coordinates></Point>
  </Placemark>
  <Placemark>
    <name>Подвесной мост через Неман</name>
    <description>Подвесной мост · 1973 г. · Мосты · г. Мосты, Гродненская область · Самый длинный подвесной мост Беларуси — 193,3 метра. Пешеходная переправа через Неман, построенная в 1973 году: качается под шагами, отлично снимается с берега и с середины пролёта. Город так и называется — Мосты.
Фото: https://kudin.by/?point=8367</description>
    <styleUrl>#pm-route</styleUrl>
    <Point><coordinates>24.546346,53.410170</coordinates></Point>
  </Placemark>
  <Placemark>
    <name>Костёл, Рожанка</name>
    <description>Костёл · конец XVI в. (?), 1674 г. · д. Рожанка, Щучинский р-н · Неоготический костёл Святого Петра и Павла в небольшой деревне — один из самых нарядных сельских храмов Гродненщины. Ранняя история восходит к концу XVI века, каменное здание известно с 1674 года.
Фото: https://kudin.by/?point=5012</description>
    <styleUrl>#pm-route</styleUrl>
    <Point><coordinates>24.732552,53.536990</coordinates></Point>
  </Placemark>
  <Placemark>
    <name>Дворец Четвертинских</name>
    <description>Дворец · Род Четвертинских · 1908 г. · пос. Желудок, Щучинский р-н · Родовой дворец княжеского рода Четвертинских, построенный в 1908 году. Именно здесь снимали «Дикую охоту короля Стахи». Территория обнесена забором, дворец закрыт на замок, на бывшем военном КПП сидит сторож — через забор лезть не стоит, а вот об экскурсии с ним вполне можно договориться.
Фото: https://kudin.by/?point=259</description>
    <styleUrl>#pm-route</styleUrl>
    <Point><coordinates>24.957504,53.600901</coordinates></Point>
  </Placemark>
  <Placemark>
    <name>Костёл, Желудок</name>
    <description>Костёл · 1853 (по другим данным 1854) г. · пос. Желудок, Щучинский р-н · Костёл Вознесения Девы Марии середины XIX века в центре местечка — вторая остановка в Желудке, в паре километров от дворца.
Фото: https://kudin.by/?point=287</description>
    <styleUrl>#pm-route</styleUrl>
    <Point><coordinates>24.975985,53.602593</coordinates></Point>
  </Placemark>
  <Placemark>
    <name>Усадьба Грабовских</name>
    <description>Усадьба · д. Дикушки · д. Дикушки, Щучинский р-н · Усадебный дом Грабовских — тихая помещичья усадьба по пути из Желудка к Лиде. Заезд короткий, объект в стороне от туристических потоков.
Фото: https://kudin.by/?point=4998</description>
    <styleUrl>#pm-route</styleUrl>
    <Point><coordinates>25.027288,53.627040</coordinates></Point>
  </Placemark>
  <Placemark>
    <name>Лидский замок</name>
    <description>Замок · XIV в. · Лида · г. Лида · Замок Гедимина — краснокирпичная крепость XIV века, одна из первых каменных твердынь ВКЛ. Отреставрированы башни и стены, внутри двор с экспозицией, летом проходят рыцарские турниры и фестивали. Главная точка последнего отрезка перед Минском.
Фото: https://kudin.by/?point=285</description>
    <styleUrl>#pm-route</styleUrl>
    <Point><coordinates>25.302564,53.887131</coordinates></Point>
  </Placemark>
  <Placemark>
    <name>Часы «Время зажжения фонарей» и брестский фонарщик</name>
    <description>ритуал · ул. Советская · Каждый вечер фонарщик в тёмно-синем мундире зажигает вручную 17 керосиновых фонарей на Советской. Время зажжения совпадает с закатом и меняется каждый день — оно выведено на этих часах в начале улицы. Приходить лучше за 10–15 минут до заката: обход занимает около получаса. Традиция возрождена в 2009 году, бессменный фонарщик — Виктор Кирисюк. Примета: подержаться за пуговицу на его мундире и загадать желание. Утром он фонари гасит — зрителей в разы меньше.</description>
    <styleUrl>#pm-city</styleUrl>
    <Point><coordinates>23.692230,52.091211</coordinates></Point>
  </Placemark>
  <Placemark>
    <name>Скульптура «Любовник» и знак «Место для поцелуев»</name>
    <description>скульптура · ул. Дзержинского, 21 · Фигура мужчины, вылезающего из окна второго этажа, — по мотивам городской легенды о незадачливом любовнике. Рядом на стене дорисованы остальные участники сцены. С 13 февраля 2016 года тут же висит знак «Место для поцелуев», сделанный под дорожный: Брест стал первым городом Беларуси с таким знаком.</description>
    <styleUrl>#pm-city</styleUrl>
    <Point><coordinates>23.692606,52.088355</coordinates></Point>
  </Placemark>
  <Placemark>
    <name>«Счастливый сапог»</name>
    <description>скульптура · ул. Советская, 34 · Бронзовый сапог, в который можно влезть ногой. По легенде о брестских «счастливых сапогах» сын горожанки Анны Александровны нашёл в сапоге семь золотых царских червонцев и разбогател. Примета: примеряя сапог, нащупать спрятанные внутри монеты. Установлен 7 сентября 2013 года.</description>
    <styleUrl>#pm-city</styleUrl>
    <Point><coordinates>23.692077,52.093996</coordinates></Point>
  </Placemark>
  <Placemark>
    <name>«Пуговица фонарщика»</name>
    <description>арт-объект · ул. Гоголя · Отдельный арт-объект — та самая пуговица, за которую загадывают желание. Удобно, если фонарщика вы не застали: пуговица на месте круглые сутки.</description>
    <styleUrl>#pm-city</styleUrl>
    <Point><coordinates>23.695076,52.088800</coordinates></Point>
  </Placemark>
  <Placemark>
    <name>Памятник Тысячелетия Бреста</name>
    <description>памятник · ул. Советская · Многофигурная композиция 2009 года: наверху ангел-хранитель, ниже — князь Владимир Василькович, Витовт, Николай Радзивилл Чёрный, летописец, безымянные мать и солдат. Главная точка встречи на пешеходной улице.</description>
    <styleUrl>#pm-city</styleUrl>
    <Point><coordinates>23.692994,52.092795</coordinates></Point>
  </Placemark>
  <Placemark>
    <name>Инсталляция «Любовь есть»</name>
    <description>арт-объект · ул. Советская · Небольшая городская инсталляция на пешеходной улице — популярная фототочка рядом с художественной галереей.</description>
    <styleUrl>#pm-city</styleUrl>
    <Point><coordinates>23.693828,52.091588</coordinates></Point>
  </Placemark>
  <Placemark>
    <name>Лавочка примирения</name>
    <description>скульптура · бульвар Шевченко · Скамья с наклонными половинами: сесть по краям и не съехать к середине невозможно — на том и построена задумка мириться.</description>
    <styleUrl>#pm-city</styleUrl>
    <Point><coordinates>23.682334,52.085341</coordinates></Point>
  </Placemark>
  <Placemark>
    <name>«Старый город» (кошки)</name>
    <description>арт-объект · ул. Советская · Композиция со скульптурами кошек, обыгрывающая старый Брест. Одна из самых фотографируемых мелочей на улице.</description>
    <styleUrl>#pm-city</styleUrl>
    <Point><coordinates>23.690084,52.095898</coordinates></Point>
  </Placemark>
  <Placemark>
    <name>Аллея кованых фонарей (начало аллеи)</name>
    <description>аллея · ул. Гоголя · Открыта 27 июля 2013 года, сегодня насчитывает более 40 кованых фонарей, и каждый — отдельный арт-объект: Дон Кихот, ночной дозор, швейная машинка, зубр, купидон, чистильщик обуви, шмель. Часть фонарей обыгрывает произведения Гоголя, часть — профиль предприятия-спонсора. Около трети выковал скульптор Александр Чумаков. Идти вдоль всей улицы — вечером фонари подсвечены.</description>
    <styleUrl>#pm-city</styleUrl>
    <Point><coordinates>23.687132,52.091718</coordinates></Point>
  </Placemark>
  <Placemark>
    <name>Музей «Спасённые художественные ценности»</name>
    <description>музей · ул. Ленина, 39 · Единственный в Беларуси музей, собранный из вещей, задержанных таможней при попытке вывоза: иконы, живопись, ювелирка, самовары, часы.</description>
    <styleUrl>#pm-city</styleUrl>
    <Point><coordinates>23.686331,52.086684</coordinates></Point>
  </Placemark>
  <Placemark>
    <name>Брестский музей железнодорожной техники</name>
    <description>музей · пр. Машерова, 2 · Открытая площадка с паровозами, вагонами и путевой техникой — более полусотни единиц. В некоторые кабины пускают.</description>
    <styleUrl>#pm-city</styleUrl>
    <Point><coordinates>23.672189,52.085655</coordinates></Point>
  </Placemark>
  <Placemark>
    <name>Брестский областной краеведческий музей</name>
    <description>музей · ул. К. Маркса, 60 · Основная экспозиция об истории города и области — хороший вводный час перед прогулкой по центру.</description>
    <styleUrl>#pm-city</styleUrl>
    <Point><coordinates>23.689331,52.090129</coordinates></Point>
  </Placemark>
  <Placemark>
    <name>Пожарная каланча с фреской</name>
    <description>фреска · ул. Замковая, 19 · На стене каланчи 1912 года — большая роспись с гродненскими пожарными разных эпох. Городская загадка: среди мужских лиц художник спрятал женское, похожее на Мону Лизу. Ищите сами, подсказок на месте нет. Внутри — музей пожарной службы, рядом скульптура пожарного.</description>
    <styleUrl>#pm-city</styleUrl>
    <Point><coordinates>23.824600,53.678143</coordinates></Point>
  </Placemark>
  <Placemark>
    <name>Лягушка-путешественница</name>
    <description>скульптура · ул. Ожешко, у ж/д вокзала · Стоит с 2009 года. В 2016-м кто-то отломал ей палку с узелком — скульптор Владимир Пантелеев восстановил фигуру и добавил сундучок-копилку. С тех пор туристы бросают туда монеты и загадывают желания.</description>
    <styleUrl>#pm-city</styleUrl>
    <Point><coordinates>23.844594,53.685948</coordinates></Point>
  </Placemark>
  <Placemark>
    <name>Скамейка любви</name>
    <description>скамейка · парк Жилибера · Парная скамья в парке — обязательная фототочка молодожёнов Гродно вместе со «Скамейкой примирения» неподалёку.</description>
    <styleUrl>#pm-city</styleUrl>
    <Point><coordinates>23.835969,53.683993</coordinates></Point>
  </Placemark>
  <Placemark>
    <name>Скамейка примирения</name>
    <description>скамейка · парк Жилибера · Гродненский аналог брестской: сиденья скошены к центру, так что мириться придётся в буквальном смысле. От «Скамейки любви» — тридцать метров.</description>
    <styleUrl>#pm-city</styleUrl>
    <Point><coordinates>23.836625,53.684002</coordinates></Point>
  </Placemark>
  <Placemark>
    <name>Купидон</name>
    <description>скульптура · центр города · Маленький бронзовый купидон — одна из тех городских мелочей, которые замечаешь, только если знаешь, что искать.</description>
    <styleUrl>#pm-city</styleUrl>
    <Point><coordinates>23.832296,53.682656</coordinates></Point>
  </Placemark>
  <Placemark>
    <name>Скамья архитекторов</name>
    <description>скульптура · площадь Тызенгауза · Композиция в честь создателей облика Гродно. В руках у одной из фигур — оригинальный план города 1780 года, найденный в военно-историческом архиве в Москве.</description>
    <styleUrl>#pm-city</styleUrl>
    <Point><coordinates>23.834708,53.684535</coordinates></Point>
  </Placemark>
  <Placemark>
    <name>«Учёный кот»</name>
    <description>скульптура · ул. Свердлова, 2 · Кот с книгой — местная традиция потереть скульптуру на удачу перед экзаменом или дорогой.</description>
    <styleUrl>#pm-city</styleUrl>
    <Point><coordinates>23.838078,53.674738</coordinates></Point>
  </Placemark>
  <Placemark>
    <name>Кот Матроскин и почтальон Печкин</name>
    <description>скульптура · ул. Советская · Простоквашинская парочка в пешеходном центре — самая детская фототочка Гродно.</description>
    <styleUrl>#pm-city</styleUrl>
    <Point><coordinates>23.838342,53.676789</coordinates></Point>
  </Placemark>
  <Placemark>
    <name>«Я люблю тебя, Гродно!»</name>
    <description>арт-объект · парк Жилибера · Объёмная надпись в парке — стандартная, но работающая точка для общего кадра.</description>
    <styleUrl>#pm-city</styleUrl>
    <Point><coordinates>23.836131,53.684290</coordinates></Point>
  </Placemark>
  <Placemark>
    <name>Памятник Жану Эммануэлю Жилиберу</name>
    <description>памятник · парк Жилибера · Французский ботаник и медик, основавший в Гродно в 1775 году врачебную академию и ботанический сад. Парк, названный его именем, вырос из того самого сада — старейшего в стране.</description>
    <styleUrl>#pm-city</styleUrl>
    <Point><coordinates>23.835413,53.685987</coordinates></Point>
  </Placemark>
  <Placemark>
    <name>Скульптуры героев фильма «Белые Росы»</name>
    <description>скульптура · микрорайон Девятовка, ул. Дзержинского / Курчатова · Деревянные фигуры Фёдора (Федоса) Ходаса, соседа Тимофея и пса Валета установлены в 2018 году на месте съёмок фильма 1983 года. Рядом — тот самый колодец из кадра. Крюк от центра, но для любителей кино обязателен.</description>
    <styleUrl>#pm-city</styleUrl>
    <Point><coordinates>23.843595,53.707567</coordinates></Point>
  </Placemark>
  <Placemark>
    <name>Фарный костёл — собор Святого Франциска Ксаверия</name>
    <description>костёл · орган · Советская площадь, 4 · Тот самый костёл с органом. Бывший иезуитский, освящён в 1705 году: главный фасад с двумя башнями — позднее барокко с рококо, внутри 21 резной алтарь в позолоте и деревянный главный алтарь высотой с многоэтажный дом. Здесь регулярно проходят органные концерты — расписание вывешено у входа и на сайте прихода. Стоит в самом центре, на Советской площади.
Фото: https://kudin.by/?point=4215</description>
    <styleUrl>#pm-city</styleUrl>
    <Point><coordinates>23.831613,53.678197</coordinates></Point>
  </Placemark>
  <Placemark>
    <name>Борисоглебская (Коложская) церковь</name>
    <description>церковь · XII в. · ул. Коложа, 8 · Одна из древнейших сохранившихся построек Беларуси — XII век, домонгольское зодчество. В стены вмурованы полированные валуны и керамические голосники. Часть храма обрушилась в Неман в 1853 году, поэтому одна стена деревянная. Стоит на высоком берегу — лучший вид на Неман в городе.
Фото: https://kudin.by/?point=4931</description>
    <styleUrl>#pm-city</styleUrl>
    <Point><coordinates>23.818551,53.678409</coordinates></Point>
  </Placemark>
  <Placemark>
    <name>Костёл Обретения Святого Креста и монастырь бернардинцев</name>
    <description>костёл · орган · ул. Парижской Коммуны, 1 · Один из старейших действующих костёлов города, строился с конца XVI века. Здесь тоже есть орган и проходят концерты — если органный костёл, который вы вспоминаете, стоит не на площади, а ближе к Неману, то это он.</description>
    <styleUrl>#pm-city</styleUrl>
    <Point><coordinates>23.830230,53.674795</coordinates></Point>
  </Placemark>
  <Placemark>
    <name>Лютеранская кирха Святого Иоанна</name>
    <description>кирха · орган · ул. Академическая, 7а · Единственная действующая лютеранская кирха Беларуси, неоготика XIX века. Небольшая, с органом; концерты бывают реже, но акустика камерная и очень чистая.</description>
    <styleUrl>#pm-city</styleUrl>
    <Point><coordinates>23.840521,53.687063</coordinates></Point>
  </Placemark>
  <Placemark>
    <name>Свято-Покровский кафедральный собор</name>
    <description>собор · ул. Ожешко, 23 · Главный православный собор города, построен в 1904–1907 годах как гарнизонный храм в память о погибших в русско-японской войне. Ретроспективно-русский стиль, шатровая колокольня.</description>
    <styleUrl>#pm-city</styleUrl>
    <Point><coordinates>23.841407,53.684498</coordinates></Point>
  </Placemark>
  <Placemark>
    <name>Костёл Девы Марии Ангельской и монастырь францисканцев</name>
    <description>костёл · ул. Огородная, 5 · Барочный костёл XVII века на другом берегу Немана, с монастырским корпусом. Тихое место с видом на город — почти без туристов.</description>
    <styleUrl>#pm-city</styleUrl>
    <Point><coordinates>23.822247,53.671985</coordinates></Point>
  </Placemark>
  <Placemark>
    <name>Церковь Рождества Богородицы</name>
    <description>церковь · ул. Давыда Городенского, 5 · Барочная церковь бывшего базилианского монастыря XVIII века, рядом с Большой хоральной синагогой — два храма в двух шагах друг от друга.</description>
    <styleUrl>#pm-city</styleUrl>
    <Point><coordinates>23.826648,53.677132</coordinates></Point>
  </Placemark>
  <Placemark>
    <name>Большая хоральная синагога</name>
    <description>синагога · ул. Большая Троицкая, 59а · Одна из старейших синагог Беларуси: община на этом месте с XVI века, нынешнее здание — начала XX века. Восстановлена, действует, внутрь пускают.</description>
    <styleUrl>#pm-city</styleUrl>
    <Point><coordinates>23.825073,53.679067</coordinates></Point>
  </Placemark>
  <Placemark>
    <name>Корпус ГрГУ имени Янки Купалы, увитый диким виноградом</name>
    <description>здание · ул. Ожешко, 22 · Бывшая Мариинская женская гимназия конца XIX века, фасад полностью затянут девичьим виноградом. Первые лозы вдоль чугунной ограды высадили ещё гимназистки в XIX веке. Летом стена ярко-зелёная, в сентябре–октябре становится багрово-красной — тогда сюда и стоит приходить за кадром.</description>
    <styleUrl>#pm-city</styleUrl>
    <Point><coordinates>23.840073,53.684994</coordinates></Point>
  </Placemark>
  <Placemark>
    <name>Августовский канал · шлюз «Немново»</name>
    <description>канал · XIX в. · д. Немново, ~35 км от Гродно · Судоходный канал 1824–1839 годов, соединивший Неман с Вислой, — памятник гидротехники, часть которого действует до сих пор. «Немново» — самый эффектный узел на белорусском участке: четырёхкамерный шлюз, единственный такой на канале. Летом ходят прогулочные теплоходы, рядом велодорожки и байдарки. Отдельная поездка на полдня из Гродно.</description>
    <styleUrl>#pm-city</styleUrl>
    <Point><coordinates>23.757476,53.869476</coordinates></Point>
  </Placemark>
  <Placemark>
    <name>Аптека-музей</name>
    <description>музей · Советская площадь, 4 · Аптека иезуитского коллегиума — старейшая в Беларуси, работает с XVIII века и по сей день. Одна половина — действующая аптека, вторая — музей с рецептурными книгами, склянками и старой мебелью.</description>
    <styleUrl>#pm-city</styleUrl>
    <Point><coordinates>23.831129,53.678484</coordinates></Point>
  </Placemark>
  <Placemark>
    <name>Музей истории религии</name>
    <description>музей · ул. Замковая, 16 · Единственный в Беларуси музей такого профиля: конфессиональная история страны от язычества до XX века, в барочном дворце Кароля Хрептовича.</description>
    <styleUrl>#pm-city</styleUrl>
    <Point><coordinates>23.825753,53.677827</coordinates></Point>
  </Placemark>
  <Placemark>
    <name>Музей автозаправочных колонок</name>
    <description>музей · ул. Победы · Частная коллекция бензоколонок разных эпох под открытым небом — редкая городская странность, которую стоит увидеть по дороге из города.</description>
    <styleUrl>#pm-city</styleUrl>
    <Point><coordinates>23.839407,53.708177</coordinates></Point>
  </Placemark>
  <Placemark>
    <name>Дот 27</name>
    <description>дот
Фото: https://kudin.by/?point=4960</description>
    <styleUrl>#pm-mil</styleUrl>
    <Point><coordinates>27.089984,53.731526</coordinates></Point>
  </Placemark>
  <Placemark>
    <name>Дот №29</name>
    <description>дот · д. Большие Новосёлки · Батальонный район обороны «X»
Фото: https://kudin.by/?point=4767</description>
    <styleUrl>#pm-mil</styleUrl>
    <Point><coordinates>27.104883,53.736990</coordinates></Point>
  </Placemark>
  <Placemark>
    <name>Дот 31</name>
    <description>дот
Фото: https://kudin.by/?point=4957</description>
    <styleUrl>#pm-mil</styleUrl>
    <Point><coordinates>27.109593,53.728179</coordinates></Point>
  </Placemark>
  <Placemark>
    <name>АПК 41</name>
    <description>апк · Артиллерийский полукапонир
Фото: https://kudin.by/?point=4956</description>
    <styleUrl>#pm-mil</styleUrl>
    <Point><coordinates>27.114054,53.728769</coordinates></Point>
  </Placemark>
  <Placemark>
    <name>АПК №046</name>
    <description>апк · Достроен к концу 1939 года при доусилении узлов обороны; вооружение и внутреннее оборудование смонтировать уже не успели
Фото: https://kudin.by/?point=5168</description>
    <styleUrl>#pm-mil</styleUrl>
    <Point><coordinates>27.091517,53.685696</coordinates></Point>
  </Placemark>
  <Placemark>
    <name>Дот №19</name>
    <description>дот · д. Дягильно · Батальонный район обороны «X»
Фото: https://kudin.by/?point=4766</description>
    <styleUrl>#pm-mil</styleUrl>
    <Point><coordinates>27.073803,53.680729</coordinates></Point>
  </Placemark>
  <Placemark>
    <name>Дот №18</name>
    <description>дот · д. Дягильно · Батальонный район обороны «X»
Фото: https://kudin.by/?point=4765</description>
    <styleUrl>#pm-mil</styleUrl>
    <Point><coordinates>27.083528,53.671569</coordinates></Point>
  </Placemark>
  <Placemark>
    <name>ДОТ №23</name>
    <description>дот · г. Дзержинск · Стоит напротив кладбища. В 2021 году вход замуровали, сам дот разрисовали
Фото: https://kudin.by/?point=4159</description>
    <styleUrl>#pm-mil</styleUrl>
    <Point><coordinates>27.105618,53.676419</coordinates></Point>
  </Placemark>
  <Placemark>
    <name>ДОТ №16</name>
    <description>дот · Дзержинский р-н · Ротный район обороны «Г»
Фото: https://kudin.by/?point=4447</description>
    <styleUrl>#pm-mil</styleUrl>
    <Point><coordinates>27.104612,53.657305</coordinates></Point>
  </Placemark>
  <Placemark>
    <name>ДОТ №12</name>
    <description>дот · Дзержинский р-н · Ротный район обороны «Г»
Фото: https://kudin.by/?point=4448</description>
    <styleUrl>#pm-mil</styleUrl>
    <Point><coordinates>27.106590,53.644514</coordinates></Point>
  </Placemark>
  <Placemark>
    <name>АПК №016</name>
    <description>апк · Дзержинский р-н · Ротный район обороны «Г»
Фото: https://kudin.by/?point=4449</description>
    <styleUrl>#pm-mil</styleUrl>
    <Point><coordinates>27.109104,53.645450</coordinates></Point>
  </Placemark>
  <Placemark>
    <name>АПК №010</name>
    <description>апк · Дзержинский р-н · Ротный район обороны «Г»
Фото: https://kudin.by/?point=4450</description>
    <styleUrl>#pm-mil</styleUrl>
    <Point><coordinates>27.119623,53.644362</coordinates></Point>
  </Placemark>
  <Placemark>
    <name>ДОТ №14</name>
    <description>дот · Дзержинский р-н · Ротный район обороны «Г»
Фото: https://kudin.by/?point=4451</description>
    <styleUrl>#pm-mil</styleUrl>
    <Point><coordinates>27.121882,53.644588</coordinates></Point>
  </Placemark>
  <Placemark>
    <name>ДОТ №15</name>
    <description>дот · Дзержинский р-н · Ротный район обороны «Г»
Фото: https://kudin.by/?point=4452</description>
    <styleUrl>#pm-mil</styleUrl>
    <Point><coordinates>27.137746,53.644633</coordinates></Point>
  </Placemark>
  <Placemark>
    <name>Дот №51 М-3</name>
    <description>дот · д. Малое Беляково · Батальонный район обороны «IX»
Фото: https://kudin.by/?point=4438</description>
    <styleUrl>#pm-mil</styleUrl>
    <Point><coordinates>27.141989,53.840495</coordinates></Point>
  </Placemark>
  <Placemark>
    <name>АПК №015</name>
    <description>апк · Батальонный район обороны «IX»
Фото: https://kudin.by/?point=4439</description>
    <styleUrl>#pm-mil</styleUrl>
    <Point><coordinates>27.114503,53.838174</coordinates></Point>
  </Placemark>
  <Placemark>
    <name>ДОТ №46</name>
    <description>дот · Батальонный район обороны «IX»
Фото: https://kudin.by/?point=4440</description>
    <styleUrl>#pm-mil</styleUrl>
    <Point><coordinates>27.112200,53.841196</coordinates></Point>
  </Placemark>
  <Placemark>
    <name>Дот №45</name>
    <description>дот · Батальонный район обороны «IX»
Фото: https://kudin.by/?point=4441</description>
    <styleUrl>#pm-mil</styleUrl>
    <Point><coordinates>27.107625,53.836589</coordinates></Point>
  </Placemark>
  <Placemark>
    <name>Дот 53</name>
    <description>дот
Фото: https://kudin.by/?point=4958</description>
    <styleUrl>#pm-mil</styleUrl>
    <Point><coordinates>27.164309,53.842422</coordinates></Point>
  </Placemark>
  <Placemark>
    <name>Дот 3</name>
    <description>дот · д. Полоневичи
Фото: https://kudin.by/?point=288</description>
    <styleUrl>#pm-mil</styleUrl>
    <Point><coordinates>26.909438,53.632920</coordinates></Point>
  </Placemark>
  <Placemark>
    <name>Дот 2</name>
    <description>дот · д. Полоневичи
Фото: https://kudin.by/?point=289</description>
    <styleUrl>#pm-mil</styleUrl>
    <Point><coordinates>26.918777,53.630338</coordinates></Point>
  </Placemark>
  <Placemark>
    <name>Дот 6</name>
    <description>дот · д. Полоневичи
Фото: https://kudin.by/?point=290</description>
    <styleUrl>#pm-mil</styleUrl>
    <Point><coordinates>26.916446,53.623718</coordinates></Point>
  </Placemark>
  <Placemark>
    <name>Дот</name>
    <description>дот · Барановичский р-н
Фото: https://kudin.by/?point=8178</description>
    <styleUrl>#pm-mil</styleUrl>
    <Point><coordinates>26.055668,53.256395</coordinates></Point>
  </Placemark>
  <Placemark>
    <name>Дот</name>
    <description>дот · Барановичский р-н
Фото: https://kudin.by/?point=8177</description>
    <styleUrl>#pm-mil</styleUrl>
    <Point><coordinates>26.055954,53.255697</coordinates></Point>
  </Placemark>
  <Placemark>
    <name>Дот</name>
    <description>дот · Барановичский р-н · Польская огневая группа, соединённая подземными ходами — коридоры тянутся на десятки метров
Фото: https://kudin.by/?point=5064</description>
    <styleUrl>#pm-mil</styleUrl>
    <Point><coordinates>26.079715,53.251409</coordinates></Point>
  </Placemark>
  <Placemark>
    <name>Дот Первой мировой</name>
    <description>дот · за д. Любаничи, Кореличский р-н · Немецкий дот. На крыше в бетоне сохранились следы ног, оставленные сто лет назад
Фото: https://kudin.by/?point=5078</description>
    <styleUrl>#pm-mil</styleUrl>
    <Point><coordinates>26.137358,53.478447</coordinates></Point>
  </Placemark>
  <Placemark>
    <name>Форт № 5 Брестской крепости</name>
    <description>форт · д. Гершоны, Брестский р-н · 1878–1888 гг., начало XX в. · Филиал мемориала «Брестская крепость» — единственный форт обвода, открытый для посещения. Валы, капониры, потерны и казематы с экспозицией
Фото: https://kudin.by/?point=1131</description>
    <styleUrl>#pm-mil</styleUrl>
    <Point><coordinates>23.672965,52.047900</coordinates></Point>
  </Placemark>
  <Placemark>
    <name>Форт 3 (литера «З»)</name>
    <description>форт · Брест · 1912–1915 гг. · Форт второй линии укреплений последней модернизации крепости. Заброшен, не музеефицирован
Фото: https://kudin.by/?point=4143</description>
    <styleUrl>#pm-mil</styleUrl>
    <Point><coordinates>23.701708,52.032588</coordinates></Point>
  </Placemark>
  <Placemark>
    <name>Оборонительная казарма Ж-З</name>
    <description>форт · Брест · Промежуточная казарма между фортами «Ж» и «З», прикрывала интервал обвода. Заброшена, стоит в поле
Фото: https://kudin.by/?point=4142</description>
    <styleUrl>#pm-mil</styleUrl>
    <Point><coordinates>23.723335,52.043971</coordinates></Point>
  </Placemark>
  <Placemark>
    <name>Форт I</name>
    <description>форт · Брест · Форт северного сектора внешнего кольца. Валы, рвы и кирпичные постройки под поздним бетоном, зарос лесом
Фото: https://kudin.by/?point=4209</description>
    <styleUrl>#pm-mil</styleUrl>
    <Point><coordinates>23.626546,52.120402</coordinates></Point>
  </Placemark>
  <Placemark>
    <name>Форт литера «А»</name>
    <description>форт · Брест · 1912–1915 гг. · ВНИМАНИЕ: на территории зоологический заказник «Барбастелла» — зимовка летучих мышей. Неорганизованное посещение карается законом
Фото: https://kudin.by/?point=4208</description>
    <styleUrl>#pm-mil</styleUrl>
    <Point><coordinates>23.612214,52.121830</coordinates></Point>
  </Placemark>
  <Placemark>
    <name>Дот</name>
    <description>дот · Брест · Долговременная огневая точка Брестского УР прямо у дороги, напротив автобусной остановки — искать в полях не надо
Фото: https://kudin.by/?point=4213</description>
    <styleUrl>#pm-mil</styleUrl>
    <Point><coordinates>23.629412,52.124557</coordinates></Point>
  </Placemark>
  <Placemark>
    <name>Оборонительная казарма А-Б</name>
    <description>форт · Брест · Рядом подорванный ПДОТ 553а Брестского УР — внутрь попадают через пролом. Сама казарма тоже взорвана: завалы, арматура
Фото: https://kudin.by/?point=4214</description>
    <styleUrl>#pm-mil</styleUrl>
    <Point><coordinates>23.636127,52.120481</coordinates></Point>
  </Placemark>
  <Placemark>
    <name>Форт литера «Б»</name>
    <description>форт · Брест · 1883–1888 гг. · Один из старейших фортов обвода, кирпичный период фортификации. Валы, рвы и казематы хорошо читаются
Фото: https://kudin.by/?point=4210</description>
    <styleUrl>#pm-mil</styleUrl>
    <Point><coordinates>23.650033,52.125931</coordinates></Point>
  </Placemark>
  <Placemark>
    <name>Оборонительная казарма «Б-В»</name>
    <description>форт · Брест · Внутри стены чёрные от копоти — жгли покрышки. Идти с фонарём и не в светлом
Фото: https://kudin.by/?point=4211</description>
    <styleUrl>#pm-mil</styleUrl>
    <Point><coordinates>23.665210,52.134802</coordinates></Point>
  </Placemark>
  <Placemark>
    <name>ДОТ</name>
    <description>дот · по дороге Волковыск — Гродно
Фото: https://kudin.by/?point=5030</description>
    <styleUrl>#pm-mil</styleUrl>
    <Point><coordinates>23.882776,53.479218</coordinates></Point>
  </Placemark>
  <Placemark>
    <name>Форт №5</name>
    <description>форт · Гродно
Фото: https://kudin.by/?point=4628</description>
    <styleUrl>#pm-mil</styleUrl>
    <Point><coordinates>23.698360,53.586731</coordinates></Point>
  </Placemark>
  <Placemark>
    <name>Форт №6</name>
    <description>форт · Гродно
Фото: https://kudin.by/?point=4627</description>
    <styleUrl>#pm-mil</styleUrl>
    <Point><coordinates>23.780169,53.594769</coordinates></Point>
  </Placemark>
  <Placemark>
    <name>Форт №4</name>
    <description>форт · Гродно
Фото: https://kudin.by/?point=4629</description>
    <styleUrl>#pm-mil</styleUrl>
    <Point><coordinates>23.670983,53.619640</coordinates></Point>
  </Placemark>
  <Placemark>
    <name>Форт №7</name>
    <description>форт · Гродно
Фото: https://kudin.by/?point=4625</description>
    <styleUrl>#pm-mil</styleUrl>
    <Point><coordinates>23.830747,53.596151</coordinates></Point>
  </Placemark>
  <Placemark>
    <name>Пороховой погреб форта №7</name>
    <description>форт · Гродно
Фото: https://kudin.by/?point=4624</description>
    <styleUrl>#pm-mil</styleUrl>
    <Point><coordinates>23.833638,53.610205</coordinates></Point>
  </Placemark>
  <Placemark>
    <name>Правый торец бруствера VIII форта</name>
    <description>форт · Гродно · Уцелевший фрагмент восьмого форта Гродненской крепости
Фото: https://kudin.by/?point=4621</description>
    <styleUrl>#pm-mil</styleUrl>
    <Point><coordinates>23.879016,53.608138</coordinates></Point>
  </Placemark>
  <Placemark>
    <name>Форт №9</name>
    <description>форт · Гродно
Фото: https://kudin.by/?point=4620</description>
    <styleUrl>#pm-mil</styleUrl>
    <Point><coordinates>23.918878,53.625556</coordinates></Point>
  </Placemark>
  <Placemark>
    <name>Форт №2</name>
    <description>форт · Гродно
Фото: https://kudin.by/?point=293</description>
    <styleUrl>#pm-mil</styleUrl>
    <Point><coordinates>23.669107,53.717352</coordinates></Point>
  </Placemark>
  <Placemark>
    <name>Форт №3</name>
    <description>форт · Гродно
Фото: https://kudin.by/?point=295</description>
    <styleUrl>#pm-mil</styleUrl>
    <Point><coordinates>23.650555,53.697235</coordinates></Point>
  </Placemark>
  <Placemark>
    <name>Форт №1</name>
    <description>форт · Гродненская крепость
Фото: https://kudin.by/?point=283</description>
    <styleUrl>#pm-mil</styleUrl>
    <Point><coordinates>23.711525,53.733812</coordinates></Point>
  </Placemark>
  <Placemark>
    <name>Форт №13</name>
    <description>форт · Гродненская крепость
Фото: https://kudin.by/?point=294</description>
    <styleUrl>#pm-mil</styleUrl>
    <Point><coordinates>23.810380,53.738780</coordinates></Point>
  </Placemark>
  <Placemark>
    <name>Аэродромное хранилище ядерных боеголовок</name>
    <description>холодная война · Барановичский район · ~34 км от трассы · Объект хранения спецбоеприпасов при военном аэродроме
Фото: https://kudin.by/?point=4201</description>
    <styleUrl>#pm-mil</styleUrl>
    <Point><coordinates>25.974817,53.007798</coordinates></Point>
  </Placemark>
  <Placemark>
    <name>Бывший военный аэродром</name>
    <description>холодная война · г. Щучин · ~36 км от трассы · Заброшенный аэродром военной авиации со всей инфраструктурой
Фото: https://kudin.by/?point=4191</description>
    <styleUrl>#pm-mil</styleUrl>
    <Point><coordinates>24.765035,53.596655</coordinates></Point>
  </Placemark>
</Document>
</kml>
